SCD 1                   
1 22490U 93009B   26170.45153556  .00000315  00000+0  35137-4 0  9999
2 22490  24.9676 193.5957 0041988 161.6065 309.1420 14.46119450761443
TECHSAT 1B (GO-32)      
1 25397U 98043D   26170.59313746  .00000028  00000+0  32334-4 0  9992
2 25397  99.0068 163.4125 0001179 158.0468 202.0760 14.24428772451673
SCD 2                   
1 25504U 98060A   26170.39400902  .00000344  00000+0  45162-4 0  9994
2 25504  24.9958  58.5474 0016878 145.9714  14.9585 14.45526591460643
DLR-TUBSAT              
1 25757U 99029B   26170.56680821  .00000044  00000+0  22764-4 0  9999
2 25757  98.6695 166.1492 0013897 347.9099  12.1760 14.52427292433598
TERRA                   
1 25994U 99068A   26170.97348472  .00000272  00000+0  64310-4 0  9999
2 25994  97.9455 220.4093 0001802 180.1913 299.9222 14.61104930410014
MAROC-TUBSAT            
1 27004U 01056D   26170.94322528 -.00000037  00000+0  10771-4 0  9996
2 27004  99.8084 347.8547 0020408 134.3958  27.9740 13.70262535226562
AQUA                    
1 27424U 02022A   26170.92065166  .00000574  00000+0  12396-3 0  9995
2 27424  98.4277 140.2580 0000997  55.0047 325.7778 14.62161553283673
SHIYAN-1 (SY-1)         
1 28220U 04012A   26170.72796284  .00011158  00000+0  34357-3 0  9992
2 28220  97.8686 248.9617 0005346  24.0812 336.0678 15.33814474211481
AURA                    
1 28376U 04026A   26170.93036789  .00000581  00000+0  12745-3 0  9994
2 28376  98.3418 127.4064 0001184  77.2848 282.8485 14.61332582166617
IRS-P5 (CARTOSAT-1)     
1 28649U 05017A   26170.62841706  .00000988  00000+0  10513-3 0  9999
2 28649  97.5306 193.5822 0002530  76.9341 283.2160 14.91054557144182
SINAH 1                 
1 28893U 05043D   26170.92440636  .00000229  00000+0  53019-4 0  9996
2 28893  98.2865 305.2625 0013132 267.3516  92.6183 14.64159142100921
RESURS-DK 1             
1 29228U 06021A   26170.74558600  .00001505  00000+0  90574-4 0  9992
2 29228  69.9331 332.9307 0006888 290.5294  69.5133 15.13226219102961
ARIRANG-2 (KOMPSAT-2)   
1 29268U 06031A   26170.97530635  .00000299  00000+0  64616-4 0  9997
2 29268  97.8307 355.2867 0015877  66.6621  89.9478 14.64661790 61886
LAPAN-TUBSAT            
1 29709U 07001A   26170.94787236  .00000351  00000+0  46830-4 0  9990
2 29709  98.1341 170.2342 0012143 170.3881 189.7569 14.85951268 51564
HAIYANG-1B              
1 31113U 07010A   26170.59201378  .00000065  00000+0  40663-4 0  9991
2 31113  98.3495 152.3440 0013180 188.9814 171.1136 14.31027414   984
COSMO-SKYMED 1          
1 31598U 07023A   26170.94216324  .00002314  00000+0  20574-3 0  9995
2 31598  97.8851   2.8208 0001508  97.9802 262.1590 14.97111570 30201
TERRASAR-X              
1 31698U 07026A   26170.49711592  .00000145  00000+0  10104-4 0  9995
2 31698  97.4452 178.1696 0001572  90.3933 269.7482 15.19151206 53579
WORLDVIEW-1 (WV-1)      
1 32060U 07041A   26170.91794465  .00004704  00000+0  19545-3 0  9995
2 32060  97.3881 290.6224 0001991  12.3794 347.7493 15.24291677 43299
YAOGAN-3                
1 32289U 07055A   26170.94639815  .00000859  00000+0  93077-4 0  9993
2 32289  97.8145 200.7967 0001741  81.4326 278.7089 14.90786318  6282
COSMO-SKYMED 2          
1 32376U 07059A   26170.92897656  .00000275  00000+0  41093-4 0  9994
2 32376  97.8887 354.4871 0001357  88.2851 271.8518 14.82156913  2419
RADARSAT-2              
1 32382U 07061A   26170.97659000 -.00000108  00000+0 -24946-4 0  9993
2 32382  98.5775 177.8694 0001299  85.1377 274.9954 14.29981906966353
CARTOSAT-2A             
1 32783U 08021A   26170.95519878  .00000348  00000+0  53537-4 0  9993
2 32783  97.7626 219.5696 0013246 100.9712 259.2991 14.79241070979216
HUANJING 1A (HJ-1A)     
1 33320U 08041A   26170.93085206  .00001236  00000+0  15423-3 0  9992
2 33320  97.6686 156.6633 0020200 126.2112 234.0974 14.83992801958819
HUANJING 1B (HJ-1B)     
1 33321U 08041B   26170.96863044 -.00000103  00000+0 -61818-5 0  9995
2 33321  97.6522 159.8629 0036289 171.8165 188.3649 14.83317918958828
GEOEYE 1                
1 33331U 08042A   26170.88442468  .00000324  00000+0  69753-4 0  9999
2 33331  98.1235 244.7815 0005315  63.0694 297.1052 14.64727786950547
THEOS                   
1 33396U 08049A   26170.92800461  .00000031  00000+0  34180-4 0  9994
2 33396  98.5564 228.1230 0001183  81.8560 278.2751 14.20133345918356
COSMO-SKYMED 3          
1 33412U 08054A   26170.93196994  .00002180  00000+0  14987-3 0  9998
2 33412  97.8281  29.5475 0013959 256.0131 103.9544 15.06966946957354
YAOGAN-4                
1 33446U 08061A   26170.79814830  .00000767  00000+0  10032-3 0  9999
2 33446  97.9306 104.2891 0015645  64.7342 295.5491 14.83204289946058
GOSAT (IBUKI)           
1 33492U 09002A   26170.72927778  .00000824  00000+0  15380-3 0  9990
2 33492  98.0889 281.7781 0001480  80.5737 279.5634 14.67540024931835
DEIMOS-1                
1 35681U 09041A   26170.89944919  .00000507  00000+0  81954-4 0  9998
2 35681  97.7409 328.0089 0001776 127.6490 232.4881 14.75240356907282
